start=new Date('2023-04-24T00:00:00.000Z').valueOf();
sats=[{"SEMIMAJOR_AXIS":"6925.256","RA_OF_ASC_NODE":"42.5369","OBJECT_TYPE":"PAYLOAD","APOAPSIS":"547.928","OBJECT_ID":"2021-038B","DECAY_DATE":null,"ECCENTRICITY":"0.00011650","CENTER_NAME":"EARTH","NORAD_CAT_ID":"48354","BSTAR":"0.00187310000000","GP_ID":"230628480","CLASSIFICATION_TYPE":"U","MEAN_MOTION_DOT":"0.00027751","ARG_OF_PERICENTER":"78.2008","PERIOD":"95.590","MEAN_MOTION":"15.06430097","MEAN_ANOMALY":"281.9111","SITE":"AFETR","TLE_LINE1":"1 48354U 21038B   23113.06639501  .00027751  00000-0  18731-2 0  9992","INCLINATION":"53.0561","PERIAPSIS":"546.315","MEAN_MOTION_DDOT":"0.0000000000000","FILE":"3892688","EPHEMERIS_TYPE":"0","OBJECT_NAME":"STARLINK-2674","TIME_SYSTEM":"UTC","REV_AT_EPOCH":"10852","MEAN_ELEMENT_THEORY":"SGP4","RCS_SIZE":"LARGE","COUNTRY_CODE":"US","LAUNCH_DATE":"2021-05-04","REF_FRAME":"TEME","ELEMENT_SET_NO":"999","TLE_LINE2":"2 48354  53.0561  42.5369 0001165  78.2008 281.9111 15.06430097108527","EPOCH":"2023-04-23T01:35:36.528864"},{"OBJECT_TYPE":"PAYLOAD","APOAPSIS":"547.797","DECAY_DATE":null,"OBJECT_ID":"2021-038C","SEMIMAJOR_AXIS":"6925.250","RA_OF_ASC_NODE":"42.5550","CLASSIFICATION_TYPE":"U","GP_ID":"230628730","ARG_OF_PERICENTER":"72.7505","MEAN_MOTION_DOT":"0.00024250","NORAD_CAT_ID":"48355","ECCENTRICITY":"0.00009840","CENTER_NAME":"EARTH","BSTAR":"0.00163990000000","PERIOD":"95.590","MEAN_MOTION":"15.06432119","MEAN_MOTION_DDOT":"0.0000000000000","OBJECT_NAME":"STARLINK-2635","FILE":"3892688","EPHEMERIS_TYPE":"0","TLE_LINE1":"1 48355U 21038C   23113.06270984  .00024250  00000-0  16399-2 0  9998","INCLINATION":"53.0544","SITE":"AFETR","MEAN_ANOMALY":"287.3592","PERIAPSIS":"546.434","REV_AT_EPOCH":"10852","TIME_SYSTEM":"UTC","MEAN_ELEMENT_THEORY":"SGP4","LAUNCH_DATE":"2021-05-04","COUNTRY_CODE":"US","RCS_SIZE":"LARGE","TLE_LINE2":"2 48355  53.0544  42.5550 0000984  72.7505 287.3592 15.06432119108520","EPOCH":"2023-04-23T01:30:18.130176","ELEMENT_SET_NO":"999","REF_FRAME":"TEME"},{"CLASSIFICATION_TYPE":"U","GP_ID":"230629980","MEAN_MOTION_DOT":"0.00030563","ARG_OF_PERICENTER":"82.2103","NORAD_CAT_ID":"48356","CENTER_NAME":"EARTH","ECCENTRICITY":"0.00010820","BSTAR":"0.00205930000000","OBJECT_TYPE":"PAYLOAD","APOAPSIS":"547.825","OBJECT_ID":"2021-038D","DECAY_DATE":null,"SEMIMAJOR_AXIS":"6925.210","RA_OF_ASC_NODE":"41.9772","MEAN_MOTION_DDOT":"0.0000000000000","FILE":"3892688","OBJECT_NAME":"STARLINK-2637","EPHEMERIS_TYPE":"0","INCLINATION":"53.0550","TLE_LINE1":"1 48356U 21038D   23113.19171315  .00030563  00000-0  20593-2 0  9996","SITE":"AFETR","MEAN_ANOMALY":"277.9008","PERIAPSIS":"546.326","PERIOD":"95.589","MEAN_MOTION":"15.06445069","MEAN_ELEMENT_THEORY":"SGP4","REV_AT_EPOCH":"10854","TIME_SYSTEM":"UTC","EPOCH":"2023-04-23T04:36:04.016160","TLE_LINE2":"2 48356  53.0550  41.9772 0001082  82.2103 277.9008 15.06445069108544","ELEMENT_SET_NO":"999","REF_FRAME":"TEME","LAUNCH_DATE":"2021-05-04","COUNTRY_CODE":"US","RCS_SIZE":"LARGE"},{"ELEMENT_SET_NO":"999","TLE_LINE2":"2 48357  53.0545  42.3036 0001001  78.5736 281.5366 15.06435180108538","EPOCH":"2023-04-23T02:59:10.460832","REF_FRAME":"TEME","LAUNCH_DATE":"2021-05-04","COUNTRY_CODE":"US","RCS_SIZE":"LARGE","MEAN_ELEMENT_THEORY":"SGP4","REV_AT_EPOCH":"10853","TIME_SYSTEM":"UTC","OBJECT_NAME":"STARLINK-2636","FILE":"3892831","EPHEMERIS_TYPE":"0","MEAN_MOTION_DDOT":"0.0000000000000","PERIAPSIS":"546.413","MEAN_ANOMALY":"281.5366","TLE_LINE1":"1 48357U 21038E   23113.12442663  .00031746  00000-0  21385-2 0  9991","INCLINATION":"53.0545","SITE":"AFETR","MEAN_MOTION":"15.06435180","PERIOD":"95.590","ARG_OF_PERICENTER":"78.5736","MEAN_MOTION_DOT":"0.00031746","GP_ID":"230658923","CLASSIFICATION_TYPE":"U","BSTAR":"0.00213850000000","ECCENTRICITY":"0.00010010","CENTER_NAME":"EARTH","NORAD_CAT_ID":"48357","OBJECT_ID":"2021-038E","DECAY_DATE":null,"OBJECT_TYPE":"PAYLOAD","APOAPSIS":"547.799","RA_OF_ASC_NODE":"42.3036","SEMIMAJOR_AXIS":"6925.241"},{"TLE_LINE2":"2 48358  53.0542  41.7090 0000787  72.8295 287.2780 15.06442548108546","EPOCH":"2023-04-23T06:00:59.267808","ELEMENT_SET_NO":"999","REF_FRAME":"TEME","LAUNCH_DATE":"2021-05-04","COUNTRY_CODE":"US","RCS_SIZE":"LARGE","MEAN_ELEMENT_THEORY":"SGP4","TIME_SYSTEM":"UTC","REV_AT_EPOCH":"10854","EPHEMERIS_TYPE":"0","FILE":"3892688","OBJECT_NAME":"STARLINK-2624","MEAN_MOTION_DDOT":"0.0000000000000","PERIAPSIS":"546.538","TLE_LINE1":"1 48358U 21038F   23113.25068597  .00026945  00000-0  18188-2 0  9998","INCLINATION":"53.0542","SITE":"AFETR","MEAN_ANOMALY":"287.2780","MEAN_MOTION":"15.06442548","PERIOD":"95.589","ARG_OF_PERICENTER":"72.8295","MEAN_MOTION_DOT":"0.00026945","CLASSIFICATION_TYPE":"U","GP_ID":"230628980","BSTAR":"0.00181880000000","NORAD_CAT_ID":"48358","ECCENTRICITY":"0.00007870","CENTER_NAME":"EARTH","OBJECT_ID":"2021-038F","DECAY_DATE":null,"APOAPSIS":"547.628","OBJECT_TYPE":"PAYLOAD","RA_OF_ASC_NODE":"41.7090","SEMIMAJOR_AXIS":"6925.218"},{"ARG_OF_PERICENTER":"79.4748","MEAN_MOTION_DOT":"0.00029372","GP_ID":"230629230","CLASSIFICATION_TYPE":"U","BSTAR":"0.00198030000000","CENTER_NAME":"EARTH","ECCENTRICITY":"0.00010290","NORAD_CAT_ID":"48359","DECAY_DATE":null,"OBJECT_ID":"2021-038G","OBJECT_TYPE":"PAYLOAD","APOAPSIS":"547.797","RA_OF_ASC_NODE":"42.0233","SEMIMAJOR_AXIS":"6925.219","OBJECT_NAME":"STARLINK-2628","FILE":"3892688","EPHEMERIS_TYPE":"0","MEAN_MOTION_DDOT":"0.0000000000000","PERIAPSIS":"546.372","MEAN_ANOMALY":"280.6357","SITE":"AFETR","TLE_LINE1":"1 48359U 21038G   23113.18065559  .00029372  00000-0  19803-2 0  9998","INCLINATION":"53.0549","MEAN_MOTION":"15.06442142","PERIOD":"95.589","MEAN_ELEMENT_THEORY":"SGP4","TIME_SYSTEM":"UTC","REV_AT_EPOCH":"10853","ELEMENT_SET_NO":"999","EPOCH":"2023-04-23T04:20:08.642976","TLE_LINE2":"2 48359  53.0549  42.0233 0001029  79.4748 280.6357 15.06442142108539","REF_FRAME":"TEME","COUNTRY_CODE":"US","LAUNCH_DATE":"2021-05-04","RCS_SIZE":"LARGE"},{"MEAN_ELEMENT_THEORY":"SGP4","TIME_SYSTEM":"UTC","REV_AT_EPOCH":"10914","REF_FRAME":"TEME","EPOCH":"2023-04-23T07:25:53.537088","TLE_LINE2":"2 48360  53.0540  41.4437 0001160 126.4277 233.6819 15.06465563109148","ELEMENT_SET_NO":"999","RCS_SIZE":"LARGE","COUNTRY_CODE":"US","LAUNCH_DATE":"2021-05-04","NORAD_CAT_ID":"48360","ECCENTRICITY":"0.00011600","CENTER_NAME":"EARTH","BSTAR":"0.00198480000000","CLASSIFICATION_TYPE":"U","GP_ID":"230601725","ARG_OF_PERICENTER":"126.4277","MEAN_MOTION_DOT":"0.00029458","SEMIMAJOR_AXIS":"6925.148","RA_OF_ASC_NODE":"41.4437","OBJECT_TYPE":"PAYLOAD","APOAPSIS":"547.816","OBJECT_ID":"2021-038H","DECAY_DATE":null,"TLE_LINE1":"1 48360U 21038H   23113.30964742  .00029458  00000-0  19848-2 0  9990","SITE":"AFETR","INCLINATION":"53.0540","MEAN_ANOMALY":"233.6819","PERIAPSIS":"546.209","MEAN_MOTION_DDOT":"0.0000000000000","FILE":"3892444","EPHEMERIS_TYPE":"0","OBJECT_NAME":"STARLINK-2622","PERIOD":"95.588","MEAN_MOTION":"15.06465563"},{"LAUNCH_DATE":"2021-05-04","COUNTRY_CODE":"US","RCS_SIZE":"LARGE","EPOCH":"2023-04-23T02:33:59.508864","TLE_LINE2":"2 48361  53.0562  42.3544 0000987  80.6044 279.5057 15.06437904108523","ELEMENT_SET_NO":"999","REF_FRAME":"TEME","REV_AT_EPOCH":"10852","TIME_SYSTEM":"UTC","MEAN_ELEMENT_THEORY":"SGP4","MEAN_MOTION":"15.06437904","PERIOD":"95.590","FILE":"3892688","OBJECT_NAME":"STARLINK-2591","EPHEMERIS_TYPE":"0","MEAN_MOTION_DDOT":"0.0000000000000","PERIAPSIS":"546.414","TLE_LINE1":"1 48361U 21038J   23113.10693876  .00028109  00000-0  18965-2 0  9997","SITE":"AFETR","INCLINATION":"53.0562","MEAN_ANOMALY":"279.5057","DECAY_DATE":null,"OBJECT_ID":"2021-038J","APOAPSIS":"547.781","OBJECT_TYPE":"PAYLOAD","RA_OF_ASC_NODE":"42.3544","SEMIMAJOR_AXIS":"6925.232","ARG_OF_PERICENTER":"80.6044","MEAN_MOTION_DOT":"0.00028109","CLASSIFICATION_TYPE":"U","GP_ID":"230629733","BSTAR":"0.00189650000000","NORAD_CAT_ID":"48361","ECCENTRICITY":"0.00009870","CENTER_NAME":"EARTH"},{"ELEMENT_SET_NO":"999","EPOCH":"2023-04-23T04:57:18.434304","TLE_LINE2":"2 48362  53.0552  42.0015 0001149  66.4378 293.6731 15.06453933108544","REF_FRAME":"TEME","LAUNCH_DATE":"2021-05-04","COUNTRY_CODE":"US","RCS_SIZE":"LARGE","MEAN_ELEMENT_THEORY":"SGP4","REV_AT_EPOCH":"10854","TIME_SYSTEM":"UTC","MEAN_MOTION_DDOT":"0.0000000000000","OBJECT_NAME":"STARLINK-2578","FILE":"3892688","EPHEMERIS_TYPE":"0","MEAN_ANOMALY":"293.6731","INCLINATION":"53.0552","TLE_LINE1":"1 48362U 21038K   23113.20646336  .00030484  00000-0  20536-2 0  9994","SITE":"AFETR","PERIAPSIS":"546.253","PERIOD":"95.589","MEAN_MOTION":"15.06453933","GP_ID":"230628481","CLASSIFICATION_TYPE":"U","ARG_OF_PERICENTER":"66.4378","MEAN_MOTION_DOT":"0.00030484","ECCENTRICITY":"0.00011490","CENTER_NAME":"EARTH","NORAD_CAT_ID":"48362","BSTAR":"0.00205360000000","OBJECT_TYPE":"PAYLOAD","APOAPSIS":"547.844","DECAY_DATE":null,"OBJECT_ID":"2021-038K","SEMIMAJOR_AXIS":"6925.183","RA_OF_ASC_NODE":"42.0015"},{"MEAN_MOTION_DDOT":"0.0000000000000","OBJECT_NAME":"STARLINK-2626","FILE":"3892688","EPHEMERIS_TYPE":"0","TLE_LINE1":"1 48363U 21038L   23113.21613377 -.00000486  00000-0 -13738-4 0  9994","INCLINATION":"53.0564","SITE":"AFETR","MEAN_ANOMALY":"260.9069","PERIAPSIS":"546.409","PERIOD":"95.593","MEAN_MOTION":"15.06393586","CLASSIFICATION_TYPE":"U","GP_ID":"230628731","ARG_OF_PERICENTER":"99.2054","MEAN_MOTION_DOT":"-0.00000486","NORAD_CAT_ID":"48363","CENTER_NAME":"EARTH","ECCENTRICITY":"0.00011900","BSTAR":"-0.00001373800000","OBJECT_TYPE":"PAYLOAD","APOAPSIS":"548.057","OBJECT_ID":"2021-038L","DECAY_DATE":null,"SEMIMAJOR_AXIS":"6925.368","RA_OF_ASC_NODE":"36.8644","TLE_LINE2":"2 48363  53.0564  36.8644 0001190  99.2054 260.9069 15.06393586108614","EPOCH":"2023-04-23T05:11:13.957728","ELEMENT_SET_NO":"999","REF_FRAME":"TEME","LAUNCH_DATE":"2021-05-04","COUNTRY_CODE":"US","RCS_SIZE":"LARGE","MEAN_ELEMENT_THEORY":"SGP4","REV_AT_EPOCH":"10861","TIME_SYSTEM":"UTC"}];
